{
"type": "FeatureCollection",
"name": "Hydrophis_vorisi",
"crs": { "type": "name", "properties": { "name": "urn:ogc:def:crs:OGC:1.3:CRS84" } },
"features": [
{ "type": "Feature", "properties": { "species": "Hydrophis vorisi", "EOO_km2": 22408.192158744874, "AOO_km2": 22416.0 }, "geometry": { "type": "Polygon", "coordinates": [ [ [ 143.614565829419803, -9.497197838491171 ], [ 143.610828475828527, -9.500933642824439 ], [ 143.607051849135786, -9.504629740321324 ], [ 143.603236371176365, -9.508285718141835 ], [ 143.599382468124645, -9.511901167927205 ], [ 143.595490570446799, -9.515475685845487 ], [ 143.591561112853043, -9.519008872636677 ], [ 143.587594534248694, -9.522500333657293 ], [ 143.583591277685542, -9.52594967892446 ], [ 143.579551790311967, -9.529356523159482 ], [ 143.575476523323374, -9.532720485830858 ], [ 143.571365931911515, -9.536041191196793 ], [ 143.56722047521373, -9.539318268347174 ], [ 143.563040616261731, -9.54255135124499 ], [ 143.558826821929785, -9.545740078767221 ], [ 143.554579562882708, -9.548884094745169 ], [ 143.550299313523055, -9.551983048004251 ], [ 143.54598655193837, -9.555036592403216 ], [ 143.541641759847664, -9.558044386872805 ], [ 143.53726542254762, -9.561006095453859 ], [ 143.532858028858442, -9.56392138733483 ], [ 143.528420071069149, -9.566789936888741 ], [ 143.523952044882691, -9.569611423709555 ], [ 143.51945444936058, -9.572385532647962 ], [ 143.51492778686702, -9.575111953846584 ], [ 143.510372563012993, -9.577790382774573 ], [ 143.505789286599565, -9.580420520261644 ], [ 143.501178469561239, -9.583002072531475 ], [ 143.496540626908683, -9.585534751234531 ], [ 143.491876276671235, -9.588018273480268 ], [ 143.48718593983898, -9.590452361868728 ], [ 143.482470140304656, -9.592836744521527 ], [ 143.477729404805103, -9.595171155112224 ], [ 143.472964262862348, -9.597455332896066 ], [ 143.46817524672457, -9.59968902273911 ], [ 143.463362891306616, -9.601871975146725 ], [ 143.458527734130172, -9.60400394629146 ], [ 143.453670315263906, -9.606084698040274 ], [ 143.448791177262905, -9.608113997981137 ], [ 143.443890865108301, -9.610091619448992 ], [ 143.438969926146228, -9.612017341551072 ], [ 143.428080926146237, -9.616212341551067 ], [ 143.423226907301171, -9.61805347585331 ], [ 143.418354034001283, -9.619844112687144 ], [ 143.413462831567216, -9.621584059012784 ], [ 143.408553827295492, -9.62327312725515 ], [ 143.403627550401779, -9.624911135324073 ], [ 143.39868453196388, -9.626497906633933 ], [ 143.393725304864375, -9.628033270122694 ], [ 143.388750403733184, -9.629517060270345 ], [ 143.383760364890065, -9.630949117116742 ], [ 143.378755726286613, -9.632329286278859 ], [ 143.373737027448385, -9.633657418967422 ], [ 143.368704809416698, -9.634933372002958 ], [ 143.363659614690334, -9.636157007831226 ], [ 143.358601987166963, -9.637328194538044 ], [ 143.35353247208468, -9.638446805863516 ], [ 143.348451615962972, -9.639512721215638 ], [ 143.343359966544085, -9.6405258256833 ], [ 143.338258072733765, -9.641486010048677 ], [ 143.333146484542198, -9.642393170798998 ], [ 143.328025753024605, -9.643247210137712 ], [ 143.322896430221988, -9.644048035995024 ], [ 143.31775906910147, -9.644795562037821 ], [ 143.31261422349678, -9.645489707678989 ], [ 143.307462448048511, -9.646130398086086 ], [ 143.302304298144293, -9.646717564189423 ], [ 143.297140329858991, -9.647251142689496 ], [ 143.291971099894738, -9.647731076063828 ], [ 143.286797165520852, -9.648157312573151 ], [ 143.281619084513807, -9.648529806266998 ], [ 143.276437415097206, -9.64884851698865 ], [ 143.27125271588136, -9.649113410379465 ], [ 143.266065545803315, -9.649324457882587 ], [ 143.260876464066399, -9.649481636746017 ], [ 143.255686030080142, -9.649584930025075 ], [ 143.250494803399761, -9.649634326584216 ], [ 143.245303343665938, -9.649629821098243 ], [ 143.240112210544538, -9.649571414052865 ], [ 143.234921963666125, -9.649459111744664 ], [ 143.229733162565793, -9.649292926280399 ], [ 143.224546366622775, -9.64907287557571 ], [ 143.219362135000097, -9.648798983353187 ], [ 143.214181026584328, -9.648471279139805 ], [ 143.20900359992541, -9.648089798263751 ], [ 143.20383041317632, -9.647654581850606 ], [ 143.198662024032956, -9.64716567681892 ], [ 143.193498989674026, -9.646623135875148 ], [ 143.177637989674025, -9.64487313587515 ], [ 143.172464419726253, -9.64427502952711 ], [ 143.167297360254622, -9.643623068159592 ], [ 143.162137371855266, -9.642917322506642 ], [ 143.156985014357133, -9.642157869137593 ], [ 143.151840846761331, -9.64134479044875 ], [ 143.146705427180308, -9.64047817465446 ], [ 143.141579312777452, -9.639558115777534 ], [ 143.136463059706585, -9.638584713639052 ], [ 143.13135722305168, -9.637558073847526 ], [ 143.126262356766546, -9.636478307787449 ], [ 143.121179013614721, -9.635345532607209 ], [ 143.116107745109616, -9.634159871206375 ], [ 143.112603000986695, -9.633301866185279 ], [ 143.107984361798998, -9.63228217820021 ], [ 143.102881398652841, -9.631099363423401 ], [ 143.097791107143678, -9.629863153077773 ], [ 143.092714045967256, -9.62857368284623 ], [ 143.087650772367311, -9.627231094257333 ], [ 143.082601842074212, -9.625835534669756 ], [ 143.077567809244101, -9.624387157256121 ], [ 143.072549226397967, -9.622886120986186 ], [ 143.06754664436113, -9.621332590609386 ], [ 143.062560612202617, -9.619726736636768 ], [ 143.057591677175054, -9.618068735322259 ], [ 143.052640384654495, -9.616358768643337 ], [ 143.047707278080651, -9.614597024281041 ], [ 143.047395722068245, -9.614482065009051 ], [ 143.044421954530691, -9.614785088488096 ], [ 143.039207691602513, -9.615261302053556 ], [ 143.033988727770065, -9.615682886872213 ], [ 143.028765635351476, -9.616049796712543 ], [ 143.023538987117746, -9.616361991338747 ], [ 143.018309356229707, -9.616619436515167 ], [ 143.013077316175327, -9.616822104010037 ], [ 143.007843440706807, -9.616969971598584 ], [ 143.002608303777492, -9.617063023065457 ], [ 142.997372479479225, -9.617101248206518 ], [ 142.992136541979079, -9.617084642829948 ], [ 142.986901065456635, -9.617013208756713 ], [ 142.981666624040855, -9.616886953820366 ], [ 142.976433791747297, -9.616705891866182 ], [ 142.971203142414936, -9.616470042749645 ], [ 142.965975249643407, -9.616179432334269 ], [ 142.960750686730108, -9.615834092488758 ], [ 142.955530026607221, -9.615434061083523 ], [ 142.95031384177895, -9.61497938198651 ], [ 142.945102704258744, -9.614470105058409 ], [ 142.939897185506567, -9.613906286147174 ], [ 142.934697856366228, -9.613287987081902 ], [ 142.929505287002712, -9.612615275666052 ], [ 142.924320046839767, -9.611888225670013 ], [ 142.91914270449746, -9.61110691682301 ], [ 142.913973827729677, -9.610271434804361 ], [ 142.908813983362052, -9.609381871234087 ], [ 142.903663737229607, -9.608438323662854 ], [ 142.898523654114882, -9.607440895561291 ], [ 142.893394297685944, -9.606389696308625 ], [ 142.888276230434514, -9.605284841180703 ], [ 142.883170013614318, -9.60412645133734 ], [ 142.878076207179618, -9.602914653809034 ], [ 142.87299536972364, -9.601649581483041 ], [ 142.867928058417505, -9.6003313730888 ], [ 142.862874828948975, -9.598960173182711 ], [ 142.857836235461633, -9.5975361321323 ], [ 142.852812830494031, -9.596059406099714 ], [ 142.847805164919123, -9.594530157024604 ], [ 142.84281378788387, -9.592948552606366 ], [ 142.837839246748985, -9.591314766285743 ], [ 142.83288208702902, -9.589628977225821 ], [ 142.827942852332342, -9.587891370292365 ], [ 142.823022084301726, -9.586102136033555 ], [ 142.818120322554847, -9.584261470659094 ], [ 142.813238104625128, -9.58236957601868 ], [ 142.808375965902712, -9.58042665957988 ], [ 142.803534439575998, -9.578432934405377 ], [ 142.798714056572834, -9.576388619129606 ], [ 142.793915345502541, -9.574293937934769 ], [ 142.789138832597928, -9.572149120526269 ], [ 142.784385041657401, -9.569954402107502 ], [ 142.779654493987721, -9.567710023354074 ], [ 142.774947708346758, -9.56541623038741 ], [ 142.77026520088657, -9.563073274747756 ], [ 142.765607485096922, -9.5606814133666 ], [ 142.760975071748788, -9.558240908538497 ], [ 142.756368468838502, -9.555752027892305 ], [ 142.751788181532021, -9.553215044361831 ], [ 142.747234712109417, -9.550630236155911 ], [ 142.742708559909943, -9.54799788672789 ], [ 142.7382102212772, -9.545318284744548 ], [ 142.733740189504715, -9.542591724054439 ], [ 142.729298954781825, -9.53981850365567 ], [ 142.724887004139987, -9.536998927663106 ], [ 142.720504821399288, -9.534133305275031 ], [ 142.716152887115442, -9.53122195073923 ], [ 142.711831678527119, -9.528265183318537 ], [ 142.707541669503513, -9.52526332725582 ], [ 142.70328333049244, -9.522216711738423 ], [ 142.699057128468809, -9.519125670862071 ], [ 142.694863526883239, -9.515990543594228 ], [ 142.690702985611466, -9.512811673736929 ], [ 142.686575960903667, -9.509589409889076 ], [ 142.682482905334638, -9.506324105408211 ], [ 142.678424267754025, -9.50301611837177 ], [ 142.674400493237215, -9.499665811537804 ], [ 142.670412023036391, -9.496273552305217 ], [ 142.666459294532274, -9.492839712673458 ], [ 142.662542741186058, -9.489364669201741 ], [ 142.658662792492009, -9.485848802967739 ], [ 142.654819873930165, -9.482292499525808 ], [ 142.651014406919899, -9.478696148864696 ], [ 142.647246808773531, -9.475060145364779 ], [ 142.643517492650659, -9.471384887754816 ], [ 142.639826867512824, -9.46767077906822 ], [ 142.636175338078658, -9.46391822659886 ], [ 142.632563304779495, -9.460127641856406 ], [ 142.628991163715511, -9.456299440521189 ], [ 142.625459306612214, -9.452434042398625 ], [ 142.621968120777581, -9.448531871373177 ], [ 142.618517989059427, -9.444593355361873 ], [ 142.61510928980357, -9.440618926267375 ], [ 142.61174239681236, -9.436609019930621 ], [ 142.608417679303471, -9.432564076083031 ], [ 142.605135501869711, -9.428484538298278 ], [ 142.601896224438804, -9.424370853943651 ], [ 142.598700202233999, -9.420223474130999 ], [ 142.595547785735192, -9.416042853667253 ], [ 142.592439320640324, -9.411829451004561 ], [ 142.589375147827667, -9.407583728190003 ], [ 142.586355603318253, -9.403306150814933 ], [ 142.583381018239237, -9.398997187963912 ], [ 142.580451718787316, -9.394657312163275 ], [ 142.577568026193234, -9.390286999329311 ], [ 142.574730256686337, -9.385886728716066 ], [ 142.571938721460072, -9.381456982862806 ], [ 142.569193726637735, -9.37699824754108 ], [ 142.56649557323891, -9.372511011701459 ], [ 142.563844557146552, -9.36799576741992 ], [ 142.561240969074419, -9.363453009843886 ], [ 142.558685094535321, -9.35888323713791 ], [ 142.556177213809661, -9.354286950429069 ], [ 142.553717601914855, -9.349664653751999 ], [ 142.551306528575054, -9.345016853993615 ], [ 142.548944258191625, -9.340344060837536 ], [ 142.546631049814124, -9.335646786708192 ], [ 142.544367157111935, -9.330925546714626 ], [ 142.542152828346389, -9.326180858594004 ], [ 142.539988306343588, -9.321413242654845 ], [ 142.537873828467752, -9.316623221719965 ], [ 142.535809626595238, -9.31181132106914 ], [ 142.533795927089017, -9.306978068381497 ], [ 142.531832950773946, -9.302123993677663 ], [ 142.531701762999802, -9.301789556253079 ], [ 142.533361, -9.303778 ], [ 142.551667, -9.310417 ], [ 142.564167, -9.324583 ], [ 142.578333, -9.324583 ], [ 142.593333, -9.328778 ], [ 142.604972, -9.326306 ], [ 142.622528, -9.332944 ], [ 142.639167, -9.335444 ], [ 142.654972, -9.32625 ], [ 142.67, -9.322972 ], [ 142.681667, -9.311306 ], [ 142.704194, -9.307944 ], [ 142.740028, -9.277972 ], [ 142.744167, -9.282083 ], [ 142.750028, -9.282111 ], [ 142.747139, -9.278333 ], [ 142.764167, -9.262917 ], [ 142.774194, -9.26125 ], [ 142.780889, -9.265417 ], [ 142.783361, -9.260417 ], [ 142.803333, -9.245444 ], [ 142.879194, -9.203778 ], [ 142.884611, -9.197556 ], [ 142.885, -9.192083 ], [ 142.889972, -9.193722 ], [ 142.8975, -9.191278 ], [ 142.927528, -9.177111 ], [ 142.94375, -9.161694 ], [ 142.953361, -9.142083 ], [ 142.955806, -9.144583 ], [ 142.961694, -9.142944 ], [ 143.017556, -9.101278 ], [ 143.077528, -9.08625 ], [ 143.092472, -9.079639 ], [ 143.095861, -9.075472 ], [ 143.103306, -9.077083 ], [ 143.138278, -9.07375 ], [ 143.150028, -9.064611 ], [ 143.154972, -9.064639 ], [ 143.176667, -9.039583 ], [ 143.180028, -9.040417 ], [ 143.194194, -9.032083 ], [ 143.200444, -9.031694 ], [ 143.185389, -9.039194 ], [ 143.227528, -9.037917 ], [ 143.266667, -9.022111 ], [ 143.282472, -9.01875 ], [ 143.304139, -9.019639 ], [ 143.3375, -9.027917 ], [ 143.341667, -9.022111 ], [ 143.365028, -9.00875 ], [ 143.372472, -9.009611 ], [ 143.388278, -8.987944 ], [ 143.404194, -8.982083 ], [ 143.420417, -8.964194 ], [ 143.414528, -8.940806 ], [ 143.4125, -8.939639 ], [ 143.409139, -8.944583 ], [ 143.404611, -8.945028 ], [ 143.409583, -8.94 ], [ 143.408722, -8.933333 ], [ 143.412056, -8.931722 ], [ 143.412972, -8.915861 ], [ 143.409583, -8.902528 ], [ 143.411278, -8.865889 ], [ 143.404639, -8.824167 ], [ 143.402917, -8.785028 ], [ 143.405417, -8.774167 ], [ 143.402917, -8.758333 ], [ 143.381278, -8.731667 ], [ 143.343722, -8.695 ], [ 143.307056, -8.640889 ], [ 143.272917, -8.601667 ], [ 143.257917, -8.576722 ], [ 143.225833, -8.547111 ], [ 143.156639, -8.498778 ], [ 143.123361, -8.467111 ], [ 143.1, -8.450417 ], [ 143.074194, -8.448778 ], [ 143.048361, -8.442083 ], [ 142.999139, -8.437917 ], [ 142.95, -8.423806 ], [ 142.93, -8.422944 ], [ 142.861639, -8.377111 ], [ 142.791694, -8.345389 ], [ 142.784583, -8.339167 ], [ 142.777472, -8.325417 ], [ 142.758278, -8.315389 ], [ 142.732556, -8.317056 ], [ 142.692472, -8.332111 ], [ 142.696694, -8.327083 ], [ 142.705056, -8.327111 ], [ 142.722889, -8.318306 ], [ 142.685833, -8.308778 ], [ 142.640833, -8.310444 ], [ 142.603306, -8.321278 ], [ 142.564167, -8.337917 ], [ 142.518333, -8.36875 ], [ 142.511667, -8.367111 ], [ 142.501639, -8.371222 ], [ 142.475, -8.372139 ], [ 142.453361, -8.367917 ], [ 142.433306, -8.356278 ], [ 142.412083, -8.336694 ], [ 142.397917, -8.310861 ], [ 142.387944, -8.245028 ], [ 142.372944, -8.224194 ], [ 142.36875, -8.208361 ], [ 142.372139, -8.195028 ], [ 142.360861, -8.181278 ], [ 142.353306, -8.177917 ], [ 142.330833, -8.177917 ], [ 142.278333, -8.188778 ], [ 142.241667, -8.189639 ], [ 142.232472, -8.192083 ], [ 142.215, -8.204583 ], [ 142.201667, -8.209639 ], [ 142.196222, -8.201667 ], [ 142.195472, -8.194194 ], [ 142.210833, -8.177083 ], [ 142.229972, -8.164583 ], [ 142.250861, -8.155444 ], [ 142.295861, -8.164611 ], [ 142.307528, -8.157111 ], [ 142.325861, -8.15875 ], [ 142.328333, -8.154611 ], [ 142.34, -8.150444 ], [ 142.350056, -8.151278 ], [ 142.361667, -8.166278 ], [ 142.371694, -8.165444 ], [ 142.391667, -8.177083 ], [ 142.404611, -8.193361 ], [ 142.412972, -8.240806 ], [ 142.41125, -8.250861 ], [ 142.417083, -8.270028 ], [ 142.415361, -8.2775 ], [ 142.418722, -8.290861 ], [ 142.427056, -8.303361 ], [ 142.449194, -8.319583 ], [ 142.5125, -8.33375 ], [ 142.5225, -8.332111 ], [ 142.540861, -8.31625 ], [ 142.580056, -8.295417 ], [ 142.603333, -8.287111 ], [ 142.622528, -8.287111 ], [ 142.638333, -8.275444 ], [ 142.665861, -8.267917 ], [ 142.703333, -8.273778 ], [ 142.720861, -8.272972 ], [ 142.754139, -8.277139 ], [ 142.759167, -8.275444 ], [ 142.759972, -8.278778 ], [ 142.775028, -8.282944 ], [ 142.810861, -8.299611 ], [ 142.818333, -8.300444 ], [ 142.82, -8.296306 ], [ 142.822083, -8.301667 ], [ 142.835028, -8.312944 ], [ 142.863306, -8.329556 ], [ 142.888333, -8.326278 ], [ 142.897139, -8.3225 ], [ 142.886222, -8.3 ], [ 142.876667, -8.291278 ], [ 142.885, -8.295417 ], [ 142.890861, -8.305444 ], [ 142.892556, -8.30375 ], [ 142.901694, -8.307111 ], [ 142.926667, -8.319611 ], [ 142.933389, -8.328778 ], [ 142.964167, -8.339583 ], [ 142.979194, -8.341222 ], [ 143.043333, -8.317944 ], [ 143.090778, -8.30375 ], [ 143.114194, -8.300472 ], [ 143.15, -8.287917 ], [ 143.2225, -8.276278 ], [ 143.285833, -8.272139 ], [ 143.323361, -8.252917 ], [ 143.346667, -8.247111 ], [ 143.408361, -8.24375 ], [ 143.438361, -8.23875 ], [ 143.474972, -8.241278 ], [ 143.511694, -8.239611 ], [ 143.527472, -8.237111 ], [ 143.534583, -8.232528 ], [ 143.5375, -8.22625 ], [ 143.533778, -8.238333 ], [ 143.5425, -8.242056 ], [ 143.580806, -8.242111 ], [ 143.600028, -8.239639 ], [ 143.610056, -8.234583 ], [ 143.661639, -8.240444 ], [ 143.670833, -8.23625 ], [ 143.679139, -8.237111 ], [ 143.694194, -8.232917 ], [ 143.710028, -8.225417 ], [ 143.715417, -8.220056 ], [ 143.721278, -8.206694 ], [ 143.720417, -8.194194 ], [ 143.710833, -8.180444 ], [ 143.698306, -8.175417 ], [ 143.689944, -8.175472 ], [ 143.654972, -8.189639 ], [ 143.6325, -8.187944 ], [ 143.610833, -8.176278 ], [ 143.605, -8.165417 ], [ 143.589167, -8.157083 ], [ 143.556667, -8.122972 ], [ 143.535028, -8.106278 ], [ 143.514167, -8.09625 ], [ 143.476722, -8.08875 ], [ 143.462889, -8.080056 ], [ 143.458778, -8.074222 ], [ 143.456278, -8.059194 ], [ 143.445444, -8.030056 ], [ 143.440028, -8.025444 ], [ 143.422472, -8.026278 ], [ 143.414556, -8.021667 ], [ 143.415806, -8.019611 ], [ 143.425028, -8.022944 ], [ 143.442472, -8.021278 ], [ 143.45125, -8.027556 ], [ 143.457944, -8.044194 ], [ 143.462056, -8.069194 ], [ 143.471667, -8.077917 ], [ 143.505806, -8.090444 ], [ 143.522528, -8.092083 ], [ 143.563361, -8.112944 ], [ 143.571222, -8.111694 ], [ 143.569556, -8.105028 ], [ 143.546278, -8.079194 ], [ 143.536222, -8.041667 ], [ 143.528389, -8.03625 ], [ 143.4775, -8.023778 ], [ 143.466639, -8.017111 ], [ 143.450444, -8.001722 ], [ 143.442083, -7.988389 ], [ 143.440417, -7.9675 ], [ 143.432111, -7.937528 ], [ 143.417472, -7.932917 ], [ 143.395778, -7.933778 ], [ 143.391306, -7.929167 ], [ 143.392944, -7.919167 ], [ 143.407472, -7.912083 ], [ 143.422472, -7.910444 ], [ 143.441639, -7.918778 ], [ 143.457889, -7.944222 ], [ 143.46375, -7.985833 ], [ 143.470417, -7.995861 ], [ 143.478361, -8.001278 ], [ 143.529111, -8.009583 ], [ 143.550833, -8.010417 ], [ 143.579944, -7.994611 ], [ 143.611667, -7.992917 ], [ 143.670861, -8.01125 ], [ 143.730861, -8.047944 ], [ 143.827472, -8.052944 ], [ 143.857556, -8.052972 ], [ 143.866667, -8.049639 ], [ 143.873778, -8.037556 ], [ 143.876222, -8.019167 ], [ 143.857917, -7.988361 ], [ 143.851222, -7.966667 ], [ 143.8525, -7.958778 ], [ 143.859583, -7.962528 ], [ 143.875389, -7.989222 ], [ 143.894139, -8.003778 ], [ 143.915, -8.009611 ], [ 143.928778, -7.993361 ], [ 143.913778, -7.949194 ], [ 143.904528, -7.937556 ], [ 143.904583, -7.933361 ], [ 143.887917, -7.901694 ], [ 143.86125, -7.865056 ], [ 143.837917, -7.814194 ], [ 143.835417, -7.800861 ], [ 143.842111, -7.774194 ], [ 143.825444, -7.743306 ], [ 143.820472, -7.7275 ], [ 143.821222, -7.715861 ], [ 143.792056, -7.675028 ], [ 143.756278, -7.610028 ], [ 143.74375, -7.592556 ], [ 143.736194, -7.563333 ], [ 143.746222, -7.548361 ], [ 143.745389, -7.543361 ], [ 143.73, -7.53875 ], [ 143.699972, -7.536306 ], [ 143.690806, -7.525389 ], [ 143.645417, -7.488333 ], [ 143.627917, -7.458361 ], [ 143.627917, -7.445861 ], [ 143.637472, -7.431278 ], [ 143.644556, -7.431694 ], [ 143.636222, -7.442528 ], [ 143.63625, -7.455028 ], [ 143.642083, -7.4675 ], [ 143.653389, -7.479611 ], [ 143.675028, -7.494639 ], [ 143.695861, -7.520444 ], [ 143.710028, -7.522139 ], [ 143.726722, -7.51375 ], [ 143.740833, -7.514583 ], [ 143.756694, -7.522056 ], [ 143.77125, -7.535861 ], [ 143.789583, -7.585028 ], [ 143.82125, -7.652528 ], [ 143.828333, -7.661306 ], [ 143.858361, -7.679583 ], [ 143.908333, -7.718778 ], [ 143.942528, -7.717111 ], [ 143.964139, -7.724583 ], [ 143.978278, -7.725417 ], [ 143.998778, -7.736278 ], [ 144.004139, -7.743722 ], [ 144.031639, -7.762111 ], [ 144.055028, -7.772944 ], [ 144.074167, -7.777944 ], [ 144.080056, -7.777944 ], [ 144.08625, -7.768333 ], [ 144.079611, -7.735833 ], [ 144.077528, -7.73375 ], [ 144.056667, -7.733778 ], [ 144.04, -7.727111 ], [ 144.036222, -7.721694 ], [ 144.057472, -7.72625 ], [ 144.078361, -7.726278 ], [ 144.08875, -7.735833 ], [ 144.087028, -7.742528 ], [ 144.089556, -7.750861 ], [ 144.099583, -7.775028 ], [ 144.108306, -7.787083 ], [ 144.128333, -7.796278 ], [ 144.153361, -7.797944 ], [ 144.168722, -7.785028 ], [ 144.171278, -7.775861 ], [ 144.164167, -7.764611 ], [ 144.153722, -7.759167 ], [ 144.165, -7.762917 ], [ 144.169972, -7.768778 ], [ 144.177889, -7.755028 ], [ 144.178778, -7.740056 ], [ 144.147944, -7.709222 ], [ 144.120417, -7.664167 ], [ 144.117917, -7.644167 ], [ 144.122889, -7.627528 ], [ 144.122917, -7.610028 ], [ 144.112056, -7.590028 ], [ 144.120889, -7.590444 ], [ 144.135833, -7.61125 ], [ 144.143778, -7.6125 ], [ 144.136222, -7.615028 ], [ 144.137944, -7.624167 ], [ 144.135444, -7.635861 ], [ 144.136222, -7.666667 ], [ 144.141222, -7.681667 ], [ 144.17625, -7.711694 ], [ 144.191722, -7.741278 ], [ 144.199972, -7.745417 ], [ 144.22, -7.747083 ], [ 144.228361, -7.744556 ], [ 144.234611, -7.737556 ], [ 144.238778, -7.731667 ], [ 144.235833, -7.72625 ], [ 144.243306, -7.727111 ], [ 144.257056, -7.715833 ], [ 144.252917, -7.706667 ], [ 144.256222, -7.703361 ], [ 144.25625, -7.690861 ], [ 144.254222, -7.687917 ], [ 144.246667, -7.687139 ], [ 144.226667, -7.688778 ], [ 144.203361, -7.679611 ], [ 144.186222, -7.645028 ], [ 144.185417, -7.636694 ], [ 144.172917, -7.620056 ], [ 144.171278, -7.612528 ], [ 144.186278, -7.629194 ], [ 144.195028, -7.652944 ], [ 144.210833, -7.642083 ], [ 144.216083, -7.633111 ], [ 144.219611, -7.634167 ], [ 144.217083, -7.641694 ], [ 144.203722, -7.659194 ], [ 144.203806, -7.668333 ], [ 144.207556, -7.674611 ], [ 144.2125, -7.677111 ], [ 144.225, -7.67625 ], [ 144.259194, -7.667944 ], [ 144.262083, -7.6625 ], [ 144.250833, -7.660417 ], [ 144.251639, -7.657972 ], [ 144.264167, -7.652944 ], [ 144.270028, -7.656306 ], [ 144.275889, -7.655417 ], [ 144.285444, -7.644167 ], [ 144.283778, -7.633306 ], [ 144.271278, -7.608333 ], [ 144.271722, -7.60175 ], [ 144.287083, -7.619167 ], [ 144.289583, -7.648333 ], [ 144.295861, -7.650444 ], [ 144.305444, -7.645056 ], [ 144.307944, -7.621639 ], [ 144.304556, -7.608306 ], [ 144.286722, -7.599611 ], [ 144.280389, -7.593361 ], [ 144.278722, -7.585833 ], [ 144.282083, -7.576389 ], [ 144.284583, -7.578361 ], [ 144.284583, -7.587528 ], [ 144.301694, -7.597972 ], [ 144.312889, -7.609167 ], [ 144.314611, -7.627556 ], [ 144.322056, -7.6525 ], [ 144.332889, -7.669139 ], [ 144.352472, -7.690444 ], [ 144.360389, -7.684167 ], [ 144.374611, -7.661639 ], [ 144.374639, -7.657528 ], [ 144.368306, -7.652083 ], [ 144.345028, -7.642139 ], [ 144.339611, -7.636667 ], [ 144.339556, -7.629194 ], [ 144.352056, -7.611694 ], [ 144.348333, -7.599639 ], [ 144.350028, -7.595389 ], [ 144.355444, -7.6025 ], [ 144.35625, -7.611667 ], [ 144.344611, -7.625833 ], [ 144.342111, -7.635861 ], [ 144.350833, -7.640444 ], [ 144.360028, -7.637917 ], [ 144.363889, -7.624917 ], [ 144.364556, -7.634167 ], [ 144.382083, -7.654972 ], [ 144.382083, -7.6675 ], [ 144.361278, -7.708333 ], [ 144.365444, -7.723333 ], [ 144.378778, -7.745 ], [ 144.397528, -7.759583 ], [ 144.420833, -7.754611 ], [ 144.426306, -7.750861 ], [ 144.43125, -7.738361 ], [ 144.413444, -7.722611 ], [ 144.419972, -7.724583 ], [ 144.434611, -7.735861 ], [ 144.446222, -7.759972 ], [ 144.457889, -7.773361 ], [ 144.484639, -7.794194 ], [ 144.47125, -7.791694 ], [ 144.475833, -7.800444 ], [ 144.487083, -7.806694 ], [ 144.485806, -7.809639 ], [ 144.481306, -7.807528 ], [ 144.488306, -7.814583 ], [ 144.505833, -7.81875 ], [ 144.514194, -7.817083 ], [ 144.524583, -7.809167 ], [ 144.520389, -7.798361 ], [ 144.509972, -7.787917 ], [ 144.505028, -7.787944 ], [ 144.477972, -7.756667 ], [ 144.470389, -7.753361 ], [ 144.467111, -7.728306 ], [ 144.460417, -7.715028 ], [ 144.427528, -7.68625 ], [ 144.425056, -7.687083 ], [ 144.430444, -7.660833 ], [ 144.429528, -7.649694 ], [ 144.431944, -7.649556 ], [ 144.433722, -7.658333 ], [ 144.432111, -7.683333 ], [ 144.440028, -7.693722 ], [ 144.452111, -7.690861 ], [ 144.46125, -7.662528 ], [ 144.450444, -7.65175 ], [ 144.425056, -7.610444 ], [ 144.416694, -7.60625 ], [ 144.404139, -7.605472 ], [ 144.430028, -7.604611 ], [ 144.43125, -7.599167 ], [ 144.422889, -7.586667 ], [ 144.414583, -7.559972 ], [ 144.394167, -7.56125 ], [ 144.38825, -7.556833 ], [ 144.389611, -7.555 ], [ 144.398333, -7.557083 ], [ 144.409167, -7.550417 ], [ 144.425833, -7.551278 ], [ 144.427083, -7.546694 ], [ 144.409583, -7.525 ], [ 144.406222, -7.503361 ], [ 144.392944, -7.485833 ], [ 144.392083, -7.464194 ], [ 144.381722, -7.462111 ], [ 144.371667, -7.46625 ], [ 144.358361, -7.464611 ], [ 144.364194, -7.459611 ], [ 144.370389, -7.46 ], [ 144.372889, -7.436639 ], [ 144.375417, -7.445028 ], [ 144.372944, -7.456667 ], [ 144.391639, -7.457944 ], [ 144.39875, -7.465833 ], [ 144.4, -7.479611 ], [ 144.416222, -7.4675 ], [ 144.402944, -7.479167 ], [ 144.402111, -7.485028 ], [ 144.415472, -7.503361 ], [ 144.420417, -7.523333 ], [ 144.425028, -7.529583 ], [ 144.431667, -7.530417 ], [ 144.442083, -7.518306 ], [ 144.442972, -7.521722 ], [ 144.436222, -7.528389 ], [ 144.434611, -7.535028 ], [ 144.44125, -7.546667 ], [ 144.442944, -7.583333 ], [ 144.471639, -7.606278 ], [ 144.473722, -7.604167 ], [ 144.474556, -7.613361 ], [ 144.511278, -7.664194 ], [ 144.513806, -7.680833 ], [ 144.517944, -7.687528 ], [ 144.528389, -7.695444 ], [ 144.536639, -7.695444 ], [ 144.552944, -7.684167 ], [ 144.555389, -7.666667 ], [ 144.544972, -7.665417 ], [ 144.53, -7.651278 ], [ 144.527472, -7.653778 ], [ 144.521278, -7.631694 ], [ 144.505, -7.629611 ], [ 144.49375, -7.610833 ], [ 144.480444, -7.5975 ], [ 144.482111, -7.588389 ], [ 144.495417, -7.5725 ], [ 144.495889, -7.559583 ], [ 144.498778, -7.570861 ], [ 144.483722, -7.595 ], [ 144.498722, -7.610861 ], [ 144.502889, -7.621667 ], [ 144.5075, -7.62375 ], [ 144.515417, -7.619222 ], [ 144.51375, -7.6075 ], [ 144.525389, -7.583361 ], [ 144.525417, -7.5775 ], [ 144.515417, -7.555861 ], [ 144.515417, -7.530833 ], [ 144.51125, -7.518361 ], [ 144.519556, -7.495 ], [ 144.510778, -7.491278 ], [ 144.486639, -7.507889 ], [ 144.482917, -7.504194 ], [ 144.503333, -7.487972 ], [ 144.514167, -7.486306 ], [ 144.520028, -7.487944 ], [ 144.52625, -7.494167 ], [ 144.52375, -7.512528 ], [ 144.526639, -7.51375 ], [ 144.555417, -7.48 ], [ 144.553806, -7.470861 ], [ 144.534583, -7.450833 ], [ 144.529194, -7.440417 ], [ 144.52, -7.441278 ], [ 144.507083, -7.435861 ], [ 144.5275, -7.434611 ], [ 144.545, -7.440444 ], [ 144.54375, -7.414167 ], [ 144.549444, -7.415167 ], [ 144.548694, -7.433361 ], [ 144.551306, -7.438361 ], [ 144.542056, -7.448361 ], [ 144.554556, -7.456694 ], [ 144.565361, -7.477528 ], [ 144.562111, -7.479167 ], [ 144.561278, -7.490861 ], [ 144.557139, -7.498361 ], [ 144.53875, -7.52 ], [ 144.537944, -7.533333 ], [ 144.546056, -7.538889 ], [ 144.538306, -7.537917 ], [ 144.537056, -7.545833 ], [ 144.539583, -7.555833 ], [ 144.555417, -7.571694 ], [ 144.554583, -7.575889 ], [ 144.559611, -7.588361 ], [ 144.557944, -7.5925 ], [ 144.564583, -7.593333 ], [ 144.55625, -7.596667 ], [ 144.557917, -7.606722 ], [ 144.567889, -7.614167 ], [ 144.574194, -7.628722 ], [ 144.580806, -7.619583 ], [ 144.585417, -7.619167 ], [ 144.580417, -7.625833 ], [ 144.581278, -7.634167 ], [ 144.577056, -7.641694 ], [ 144.588389, -7.647917 ], [ 144.593389, -7.646222 ], [ 144.592861, -7.651667 ], [ 144.598333, -7.65625 ], [ 144.616639, -7.660417 ], [ 144.629222, -7.660444 ], [ 144.638306, -7.644583 ], [ 144.642528, -7.647944 ], [ 144.648306, -7.642917 ], [ 144.655278, -7.642083 ], [ 144.654972, -7.644611 ], [ 144.65, -7.644583 ], [ 144.643778, -7.65 ], [ 144.649167, -7.65875 ], [ 144.660833, -7.660444 ], [ 144.674139, -7.65625 ], [ 144.678778, -7.651694 ], [ 144.678778, -7.643361 ], [ 144.672889, -7.630028 ], [ 144.672917, -7.614194 ], [ 144.669194, -7.608778 ], [ 144.664167, -7.609611 ], [ 144.665472, -7.603361 ], [ 144.662056, -7.594194 ], [ 144.64875, -7.590861 ], [ 144.649111, -7.588806 ], [ 144.66, -7.590417 ], [ 144.662944, -7.585028 ], [ 144.653722, -7.570056 ], [ 144.652056, -7.555806 ], [ 144.64875, -7.556667 ], [ 144.652139, -7.538361 ], [ 144.648333, -7.535417 ], [ 144.628333, -7.54375 ], [ 144.619972, -7.544611 ], [ 144.619056, -7.542556 ], [ 144.620889, -7.539583 ], [ 144.650861, -7.528778 ], [ 144.661722, -7.532917 ], [ 144.670417, -7.528361 ], [ 144.657917, -7.515028 ], [ 144.64625, -7.486694 ], [ 144.635444, -7.475833 ], [ 144.630472, -7.4625 ], [ 144.619972, -7.462944 ], [ 144.627528, -7.457083 ], [ 144.63, -7.459611 ], [ 144.632972, -7.458361 ], [ 144.634556, -7.451667 ], [ 144.651222, -7.433333 ], [ 144.652917, -7.421694 ], [ 144.644194, -7.405472 ], [ 144.628333, -7.414611 ], [ 144.611667, -7.414583 ], [ 144.607944, -7.411694 ], [ 144.616667, -7.412083 ], [ 144.624611, -7.393361 ], [ 144.633306, -7.387944 ], [ 144.634611, -7.390028 ], [ 144.622889, -7.402528 ], [ 144.622111, -7.41 ], [ 144.625833, -7.412083 ], [ 144.640806, -7.402917 ], [ 144.65125, -7.409167 ], [ 144.657111, -7.422528 ], [ 144.65625, -7.430028 ], [ 144.649556, -7.4425 ], [ 144.649583, -7.449167 ], [ 144.645861, -7.449611 ], [ 144.637944, -7.457528 ], [ 144.635444, -7.466694 ], [ 144.64875, -7.478306 ], [ 144.658361, -7.494611 ], [ 144.672556, -7.496278 ], [ 144.68125, -7.489167 ], [ 144.683722, -7.475 ], [ 144.679167, -7.46625 ], [ 144.671278, -7.463333 ], [ 144.68, -7.464583 ], [ 144.687472, -7.47375 ], [ 144.697944, -7.4575 ], [ 144.711667, -7.445417 ], [ 144.741667, -7.445389 ], [ 144.741278, -7.4225 ], [ 144.748778, -7.408361 ], [ 144.7525, -7.407111 ], [ 144.748694, -7.419194 ], [ 144.750389, -7.449167 ], [ 144.752083, -7.460833 ], [ 144.757944, -7.465056 ], [ 144.757917, -7.469194 ], [ 144.745889, -7.472917 ], [ 144.745806, -7.470444 ], [ 144.754583, -7.4675 ], [ 144.748722, -7.46 ], [ 144.748694, -7.453361 ], [ 144.744972, -7.452083 ], [ 144.735861, -7.457944 ], [ 144.719139, -7.455444 ], [ 144.695444, -7.472528 ], [ 144.703806, -7.488361 ], [ 144.709583, -7.510833 ], [ 144.704583, -7.534167 ], [ 144.710833, -7.537944 ], [ 144.715444, -7.535833 ], [ 144.720361, -7.516694 ], [ 144.727944, -7.5075 ], [ 144.727472, -7.49875 ], [ 144.731222, -7.498333 ], [ 144.727972, -7.500889 ], [ 144.730833, -7.507111 ], [ 144.74575, -7.5155 ], [ 144.7425, -7.51875 ], [ 144.729222, -7.509556 ], [ 144.722083, -7.523361 ], [ 144.720389, -7.536667 ], [ 144.748389, -7.555417 ], [ 144.756694, -7.572083 ], [ 144.764611, -7.572528 ], [ 144.766306, -7.561694 ], [ 144.75425, -7.547111 ], [ 144.770056, -7.563833 ], [ 144.772083, -7.603333 ], [ 144.767972, -7.625806 ], [ 144.763722, -7.629194 ], [ 144.758722, -7.641694 ], [ 144.762111, -7.654194 ], [ 144.749639, -7.666694 ], [ 144.765861, -7.675389 ], [ 144.774139, -7.675444 ], [ 144.78, -7.667083 ], [ 144.77375, -7.681694 ], [ 144.79, -7.691306 ], [ 144.795806, -7.689611 ], [ 144.801667, -7.692111 ], [ 144.818306, -7.687889 ], [ 144.821222, -7.685833 ], [ 144.82, -7.682917 ], [ 144.828722, -7.677556 ], [ 144.831130589629254, -7.664749009341123 ], [ 144.831160947517048, -7.665150282607273 ], [ 144.831501244544086, -7.670375176403066 ], [ 144.831786808952586, -7.67560334723162 ], [ 144.83201760942714, -7.680834221765087 ], [ 144.832193620657932, -7.686067226379127 ], [ 144.832314823343296, -7.691301787215816 ], [ 144.832381204192046, -7.696537330246568 ], [ 144.832392755924701, -7.701773281335091 ], [ 144.832349477274562, -7.707009066300345 ], [ 144.832251372987571, -7.712244110979506 ], [ 144.83209845382197, -7.71747784129093 ], [ 144.831890736547081, -7.722709683297112 ], [ 144.831628243941452, -7.727939063267618 ], [ 144.831311004790336, -7.733165407742003 ], [ 144.830939053882616, -7.738388143592701 ], [ 144.830512432006856, -7.743606698087871 ], [ 144.830031185946979, -7.748820498954204 ], [ 144.829495368477012, -7.754028974439683 ], [ 144.828905038355401, -7.759231553376274 ], [ 144.82826026031853, -7.764427665242571 ], [ 144.827561105073499, -7.769616740226352 ], [ 144.826807649290629, -7.77479820928707 ], [ 144.825999975594783, -7.779971504218252 ], [ 144.825138172556535, -7.785136057709812 ], [ 144.824222334682247, -7.790291303410259 ], [ 144.823252562403923, -7.795436675988809 ], [ 144.822228962067953, -7.800571611197374 ], [ 144.821151645923692, -7.805695545932445 ], [ 144.820020732111004, -7.810807918296836 ], [ 144.818836344647309, -7.815908167661306 ], [ 144.817598613414049, -7.820995734726036 ], [ 144.816307674142394, -7.826070061581968 ], [ 144.814963668398377, -7.83113059177198 ], [ 144.813566743567407, -7.836176770351908 ], [ 144.812117052838005, -7.841208043951405 ], [ 144.8106147551851, -7.846223860834626 ], [ 144.809060015352543, -7.851223670960724 ], [ 144.807453003835121, -7.856206926044178 ], [ 144.805793896859711, -7.861173079614911 ], [ 144.804082876366124, -7.86612158707822 ], [ 144.80232012998701, -7.871051905774499 ], [ 144.800505851027395, -7.87596349503874 ], [ 144.798640238443397, -7.880855816259835 ], [ 144.796723496820448, -7.885728332939629 ], [ 144.79475583635093, -7.890580510751759 ], [ 144.792737472810899, -7.895411817600251 ], [ 144.790668627536718, -7.900221723677863 ], [ 144.78854952740059, -7.905009701524192 ], [ 144.786380404785689, -7.909775226083512 ], [ 144.784161497560774, -7.914517774762351 ], [ 144.78189304905402, -7.919236827486804 ], [ 144.779575308026381, -7.923931866759562 ], [ 144.77720852864428, -7.928602377716657 ], [ 144.774792970451728, -7.933247848183933 ], [ 144.772328898341925, -7.937867768733203 ], [ 144.769816582528108, -7.942461632738117 ], [ 144.76725629851407, -7.947028936429719 ], [ 144.764648327063753, -7.951569178951691 ], [ 144.761992954170637, -7.956081862415275 ], [ 144.759290471026304, -7.960566491953878 ], [ 144.756541173988467, -7.965022575777331 ], [ 144.753745364548536, -7.969449625225829 ], [ 144.750903349298483, -7.973847154823513 ], [ 144.748015439897358, -7.978214682331705 ], [ 144.745081953036959, -7.982551728801797 ], [ 144.742103210407151, -7.986857818627768 ], [ 144.739079538660661, -7.991132479598345 ], [ 144.736011269377144, -7.995375242948781 ], [ 144.732898739026922, -7.999585643412264 ], [ 144.729742288934006, -8.003763219270935 ], [ 144.726542265238749, -8.007907512406524 ], [ 144.723299018859791, -8.012018068350587 ], [ 144.720012905455633, -8.016094436334344 ], [ 144.716684285385668, -8.020136169338107 ], [ 144.713313523670564, -8.024142824140309 ], [ 144.709900989952359, -8.028113961366097 ], [ 144.706447058453818, -8.032049145535526 ], [ 144.706098729689529, -8.03243772443874 ], [ 144.705404737000293, -8.033657969829381 ], [ 144.702761373719085, -8.038194272461798 ], [ 144.700070523132354, -8.042702568606588 ], [ 144.697332481937678, -8.047182361171604 ], [ 144.694547552035999, -8.051633156207556 ], [ 144.691716040498278, -8.056054462962464 ], [ 144.688838259531593, -8.060445793935777 ], [ 144.685914526444861, -8.064806664932124 ], [ 144.682945163613653, -8.069136595114697 ], [ 144.679930498444804, -8.073435107058275 ], [ 144.67687086334027, -8.077701726801868 ], [ 144.673766595660453, -8.081935983900964 ], [ 144.670618037686978, -8.086137411479418 ], [ 144.667425536585029, -8.090305546280915 ], [ 144.664189444365064, -8.09443992872006 ], [ 144.660910117843883, -8.09854010293305 ], [ 144.657587918605458, -8.102605616827926 ], [ 144.649671918605463, -8.112189616827926 ], [ 144.646263935824152, -8.116271304789093 ], [ 144.642812738608029, -8.120316519372476 ], [ 144.639318717280958, -8.124324803072026 ], [ 144.635782267010086, -8.128295702558502 ], [ 144.632203787761171, -8.132228768730744 ], [ 144.628583684253414, -8.136123556766467 ], [ 144.624922365913591, -8.139979626172574 ], [ 144.621220246829864, -8.143796540834966 ], [ 144.617477745704832, -8.147573869067875 ], [ 144.613695285808205, -8.151311183662681 ], [ 144.609873294929002, -8.155008061936231 ], [ 144.606012205327119, -8.158664085778641 ], [ 144.602112453684384, -8.162278841700587 ], [ 144.598174481055338, -8.165851920880067 ], [ 144.594198732817091, -8.16938291920864 ], [ 144.590185658619276, -8.172871437337131 ], [ 144.586135712332862, -8.176317080720789 ], [ 144.582049351999103, -8.17971945966392 ], [ 144.577927039777506, -8.183078189363952 ], [ 144.573769241893757, -8.186392889954963 ], [ 144.569576428586885, -8.189663186550636 ], [ 144.56534907405603, -8.192888709286663 ], [ 144.561087656406954, -8.196069093362576 ], [ 144.545281656406956, -8.207735093362576 ], [ 144.54109174718181, -8.21079410750507 ], [ 144.536870325015343, -8.213809485048845 ], [ 144.53261784435054, -8.216780901383597 ], [ 144.528334762973884, -8.219708036631523 ], [ 144.524021541965993, -8.222590575681753 ], [ 144.519678645652164, -8.225428208224264 ], [ 144.515306541552263, -8.228220628783294 ], [ 144.510905700330369, -8.23096753675023 ], [ 144.50647659574426, -8.233668636415956 ], [ 144.502019704594233, -8.236323637002698 ], [ 144.497535506671824, -8.238932252695321 ], [ 144.493024484708315, -8.241494202672103 ], [ 144.488487124322489, -8.244009211134959 ], [ 144.483923913968624, -8.246477007339132 ], [ 144.479335344883737, -8.24889732562235 ], [ 144.474721911034749, -8.251269905433409 ], [ 144.470084109065283, -8.253594491360229 ], [ 144.465422438242342, -8.255870833157354 ], [ 144.460737400402309, -8.258098685772884 ], [ 144.45602949989717, -8.260277809374863 ], [ 144.451299243540092, -8.262407969377085 ], [ 144.44654714055082, -8.26448893646436 ], [ 144.441773702500996, -8.266520486617194 ], [ 144.436979443258991, -8.26850240113591 ], [ 144.432164878934628, -8.270434466664183 ], [ 144.427330527823585, -8.272316475212016 ], [ 144.422476910351634, -8.274148224178122 ], [ 144.417604549018591, -8.275929516371749 ], [ 144.412713968342047, -8.277660160033889 ], [ 144.407805694801027, -8.27933996885794 ], [ 144.402880256779127, -8.280968762009744 ], [ 144.39793818450778, -8.28254636414707 ], [ 144.392980010009097, -8.284072605438482 ], [ 144.388006267038634, -8.285547321581618 ], [ 144.383017491027942, -8.286970353820886 ], [ 144.377156491027961, -8.288609353820885 ], [ 144.372102737479707, -8.289994099932244 ], [ 144.367034749431184, -8.291325807054593 ], [ 144.361953083508638, -8.29260432892416 ], [ 144.356858297840461, -8.293829525118605 ], [ 144.351750951996081, -8.295001261072438 ], [ 144.349853487269769, -8.295415697782285 ], [ 144.345323418124764, -8.296531105797611 ], [ 144.340266327386644, -8.297720688772696 ], [ 144.33519714973653, -8.298857663855912 ], [ 144.330116432428127, -8.299941908302731 ], [ 144.325024723960951, -8.300973305061271 ], [ 144.322581131270198, -8.301441912079499 ], [ 144.320157485972913, -8.304523494461611 ], [ 144.31686343114913, -8.308622317211276 ], [ 144.313526452299044, -8.312686270615215 ], [ 144.310146918507826, -8.316714905181572 ], [ 144.297362908004175, -8.331792577607487 ], [ 144.29887950380089, -8.336114620246754 ], [ 144.300561724570684, -8.341074343744939 ], [ 144.302191903207103, -8.346051415324702 ], [ 144.303769860855283, -8.35104528892715 ], [ 144.305295424389783, -8.356055416649966 ], [ 144.306768426433536, -8.361081248807508 ], [ 144.308188705376296, -8.366122233991128 ], [ 144.309556105392289, -8.371177819129661 ], [ 144.314640105392272, -8.390372819129659 ], [ 144.315960610143918, -8.395466630732907 ], [ 144.31722743329189, -8.400574057537103 ], [ 144.318440434519601, -8.405694533830387 ], [ 144.319599479471862, -8.4108274924555 ], [ 144.320704439769855, -8.41597236487261 ], [ 144.321755193025297, -8.421128581222286 ], [ 144.322751622854042, -8.426295570388607 ], [ 144.32369361888891, -8.431472760062432 ], [ 144.324581076792015, -8.436659576804782 ], [ 144.325413898266163, -8.441855446110363 ], [ 144.326191991065912, -8.44705979247119 ], [ 144.326915269007685, -8.452272039440343 ], [ 144.327583651979324, -8.457491609695804 ], [ 144.328197065949013, -8.462717925104416 ], [ 144.328755442973431, -8.467950406785903 ], [ 144.329258721205235, -8.473188475177006 ], [ 144.329706844900102, -8.478431550095658 ], [ 144.330099764422613, -8.483679050805263 ], [ 144.330437436252026, -8.488930396079011 ], [ 144.330719822986907, -8.494185004264256 ], [ 144.330946893349392, -8.499442293346945 ], [ 144.331118622188569, -8.504701681016083 ], [ 144.331234990483296, -8.50996258472823 ], [ 144.331295985344326, -8.515224421772022 ], [ 144.331301600015706, -8.520486609332718 ], [ 144.331251833875541, -8.525748564556757 ], [ 144.331146692436079, -8.531009704616306 ], [ 144.330986187343029, -8.536269446773826 ], [ 144.330770336374343, -8.54152720844661 ], [ 144.330499163438276, -8.546782407271319 ], [ 144.330172698570607, -8.55203446116848 ], [ 144.329790977931481, -8.557282788406956 ], [ 144.329354043801203, -8.562526807668393 ], [ 144.328861944575777, -8.567765938111588 ], [ 144.328314734761392, -8.572999599436848 ], [ 144.327712474968422, -8.578227211950248 ], [ 144.327055231904723, -8.583448196627845 ], [ 144.32634307836824, -8.588661975179813 ], [ 144.325576093238936, -8.593867970114495 ], [ 144.324754361470127, -8.599065604802368 ], [ 144.323877974078897, -8.604254303539912 ], [ 144.322947028136213, -8.609433491613377 ], [ 144.321961626756092, -8.614602595362435 ], [ 144.320921879084125, -8.619761042243727 ], [ 144.319827900285475, -8.624908260894276 ], [ 144.318679811532036, -8.630043681194776 ], [ 144.317477739989158, -8.635166734332728 ], [ 144.316221818801409, -8.640276852865462 ], [ 144.314912187077823, -8.645373470782975 ], [ 144.313548989876665, -8.650456023570621 ], [ 144.312132378189176, -8.655523948271655 ], [ 144.310662508922945, -8.660576683549571 ], [ 144.309139544884516, -8.665613669750282 ], [ 144.307563654761339, -8.670634348964112 ], [ 144.305935013103124, -8.675638165087589 ], [ 144.304253800302405, -8.68062456388504 ], [ 144.302520202574726, -8.68559299304998 ], [ 144.300734411937839, -8.690542902266287 ], [ 144.298896626190555, -8.695473743269162 ], [ 144.297007048890833, -8.700384969905842 ], [ 144.291145048890854, -8.715384969905847 ], [ 144.289230444781538, -8.720210127383694 ], [ 144.287265848475386, -8.725015147148 ], [ 144.285251471739031, -8.72979951125888 ], [ 144.283187531704954, -8.734562704002965 ], [ 144.281074250848235, -8.739304211948969 ], [ 144.278911856962338, -8.744023524003047 ], [ 144.276700583134783, -8.748720131463877 ], [ 144.274440667721933, -8.753393528077495 ], [ 144.272132354323247, -8.758043210091877 ], [ 144.269775891755046, -8.762668676311218 ], [ 144.267371534023852, -8.767269428149973 ], [ 144.264919540298706, -8.771844969686594 ], [ 144.262420174883516, -8.776394807716988 ], [ 144.259873707188405, -8.780918451807679 ], [ 144.257280411700719, -8.785415414348673 ], [ 144.254640567955477, -8.789885210606016 ], [ 144.251954460505146, -8.79432735877405 ], [ 144.249222378889044, -8.798741380027339 ], [ 144.246444617602123, -8.80312679857229 ], [ 144.243621476063225, -8.807483141698436 ], [ 144.240753258582714, -8.81180993982939 ], [ 144.237840274329841, -8.816106726573461 ], [ 144.234882837299295, -8.82037303877393 ], [ 144.231881266277412, -8.82460841655897 ], [ 144.228835884807751, -8.82881240339122 ], [ 144.225747021156309, -8.832984546116995 ], [ 144.222615008276051, -8.837124395015127 ], [ 144.21944018377107, -8.841231503845449 ], [ 144.216222889860205, -8.845305429896893 ], [ 144.212963473340125, -8.849345734035207 ], [ 144.209662285547921, -8.853351980750293 ], [ 144.20631968232334, -8.857323738203153 ], [ 144.202936023970238, -8.861260578272431 ], [ 144.199511675217991, -8.865162076600571 ], [ 144.196047005181981, -8.869027812639548 ], [ 144.192542387323897, -8.872857369696209 ], [ 144.188998199411429, -8.876650334977182 ], [ 144.185414823477629, -8.880406299633373 ], [ 144.181792645779666, -8.884124858804041 ], [ 144.178132056757164, -8.887805611660438 ], [ 144.166855056757157, -8.899027611660436 ], [ 144.163124793834498, -8.902701013993918 ], [ 144.159356272929443, -8.906335157134198 ], [ 144.155549907203721, -8.909929642652042 ], [ 144.151706113968203, -8.913484076466087 ], [ 144.147825314637089, -8.916998068886038 ], [ 144.143907934681749, -8.920471234655386 ], [ 144.139954403584085, -8.923903192993658 ], [ 144.135965154789403, -8.927293567638152 ], [ 144.131940625658956, -8.930641986885199 ], [ 144.127881257421905, -8.933948083630902 ], [ 144.123787495127061, -8.937211495411397 ], [ 144.119659787593946, -8.940431864442582 ], [ 144.11549858736376, -8.943608837659349 ], [ 144.11130435064959, -8.94674206675429 ], [ 144.107077537286528, -8.949831208215876 ], [ 144.102818610681197, -8.952875923366133 ], [ 144.098528037760929, -8.955875878397762 ], [ 144.094206288922635, -8.95883074441074 ], [ 144.089853837981195, -8.961740197448373 ], [ 144.0854711621175, -8.964603918532827 ], [ 144.081058741826126, -8.967421593700081 ], [ 144.076617060862731, -8.970192914034362 ], [ 144.072146606190898, -8.972917575702009 ], [ 144.067647867928912, -8.975595279984779 ], [ 144.063121339295861, -8.978225733312607 ], [ 144.058567516557616, -8.980808647295779 ], [ 144.053986898972454, -8.983343738756565 ], [ 144.049756883470337, -8.985627267186713 ], [ 144.049272938440311, -8.986340143512196 ], [ 144.04630960717418, -8.99060912447589 ], [ 144.043302067464708, -8.994847076287451 ], [ 144.040250644192724, -8.99905354115433 ], [ 144.03715566697943, -9.003228064685265 ], [ 144.034017470150815, -9.007370195939361 ], [ 144.030836392701616, -9.011479487474807 ], [ 144.027612778258515, -9.01555549539721 ], [ 144.024346975043244, -9.019597779407542 ], [ 144.021039335834757, -9.023605902849706 ], [ 144.017690217931261, -9.027579432757696 ], [ 144.014299983111613, -9.031517939902381 ], [ 144.010868997596134, -9.035420998837859 ], [ 143.997173997596121, -9.05083799883786 ], [ 143.993667829273249, -9.054743552093639 ], [ 143.99012085822946, -9.05861208656505 ], [ 143.986533475292163, -9.062443175992783 ], [ 143.982906075741653, -9.066236398243461 ], [ 143.979239059267513, -9.069991335356146 ], [ 143.975532829924475, -9.073707573588401 ], [ 143.97178779608808, -9.077384703461865 ], [ 143.968004370409574, -9.081022319807392 ], [ 143.964182969770434, -9.084620021809675 ], [ 143.960324015236466, -9.088177413051421 ], [ 143.956427932011422, -9.091694101557026 ], [ 143.952495149390074, -9.095169699835775 ], [ 143.948526100711007, -9.098603824924526 ], [ 143.944521223308811, -9.101996098429909 ], [ 143.940480958465884, -9.105346146570032 ], [ 143.936405751363907, -9.108653600215648 ], [ 143.935052852132515, -9.109728260662202 ], [ 143.934437666518647, -9.112481388556516 ], [ 143.933227240727803, -9.117640812849652 ], [ 143.93196219886886, -9.12278711819688 ], [ 143.930642683055567, -9.127919726466589 ], [ 143.929268841521235, -9.133038061065882 ], [ 143.927840828602058, -9.138141547005358 ], [ 143.926358804719797, -9.143229610963701 ], [ 143.924822936363796, -9.148301681352089 ], [ 143.923233396072163, -9.153357188378401 ], [ 143.921590362412559, -9.158395564111231 ], [ 143.919894019961987, -9.16341624254369 ], [ 143.918144559286134, -9.168418659656988 ], [ 143.916342176917937, -9.173402253483795 ], [ 143.914487075335501, -9.178366464171376 ], [ 143.912579462939419, -9.183310734044476 ], [ 143.911674075098773, -9.185585291165751 ], [ 143.910866057402131, -9.187983248754676 ], [ 143.909133943543395, -9.192950333585625 ], [ 143.907349668241324, -9.19789892043279 ], [ 143.905513428994908, -9.202828461544019 ], [ 143.903625429054841, -9.207738411275308 ], [ 143.901685877401206, -9.212628226151191 ], [ 143.899694988720285, -9.217497364924901 ], [ 143.897652983380738, -9.222345288638282 ], [ 143.895560087409308, -9.227171460681443 ], [ 143.893416532465693, -9.231975346852154 ], [ 143.891222555816967, -9.236756415414979 ], [ 143.888978400311402, -9.241514137160127 ], [ 143.886684314351385, -9.246247985462038 ], [ 143.884340551866075, -9.250957436337668 ], [ 143.881947372283292, -9.255641968504492 ], [ 143.879505040500703, -9.260301063438195 ], [ 143.877013826856626, -9.264934205430086 ], [ 143.874474007099991, -9.269540881644156 ], [ 143.871885862359903, -9.274120582173865 ], [ 143.869249679114489, -9.278672800098567 ], [ 143.86656574915915, -9.283197031539636 ], [ 143.863834369574363, -9.28769277571622 ], [ 143.861055842692707, -9.292159535000689 ], [ 143.858230476065444, -9.296596814973711 ], [ 143.855358582428437, -9.301004124478974 ], [ 143.852440479667564, -9.305380975677556 ], [ 143.849476490783559, -9.309726884101924 ], [ 143.8464669438562, -9.314041368709557 ], [ 143.843412172008016, -9.318323951936188 ], [ 143.840312513367451, -9.322574159748678 ], [ 143.837168311031348, -9.326791521697469 ], [ 143.833979913027065, -9.33097557096867 ], [ 143.830747672273958, -9.335125844435723 ], [ 143.827471946544165, -9.339241882710665 ], [ 143.824153098423238, -9.343323230194979 ], [ 143.820791495269845, -9.347369435130025 ], [ 143.817387509175063, -9.351380049647041 ], [ 143.813941516921403, -9.355354629816718 ], [ 143.81045389994091, -9.35929273569834 ], [ 143.806925044273044, -9.363193931388476 ], [ 143.803355340521847, -9.367057785069239 ], [ 143.799745183812917, -9.370883869056069 ], [ 143.796094973749376, -9.374671759845084 ], [ 143.792405114367881, -9.378421038159955 ], [ 143.788676014093824, -9.382131288998311 ], [ 143.784908085696088, -9.385802101677678 ], [ 143.781101746241404, -9.389433069880941 ], [ 143.777257417048133, -9.393023791701308 ], [ 143.773375523639714, -9.396573869686808 ], [ 143.769456495697483, -9.400082910884276 ], [ 143.765500767013179, -9.403550526882851 ], [ 143.761508775440859, -9.406976333856973 ], [ 143.757480962848462, -9.410359952608859 ], [ 143.753417775068954, -9.41370100861049 ], [ 143.749319661850933, -9.416999132045049 ], [ 143.745187076808747, -9.420253957847869 ], [ 143.741020477372501, -9.423465125746837 ], [ 143.736820324737266, -9.426632280302274 ], [ 143.732587083812007, -9.429755070946271 ], [ 143.72832122316828, -9.432833152021505 ], [ 143.724023214988193, -9.435866182819488 ], [ 143.719693535012311, -9.438853827618285 ], [ 143.715332662486787, -9.441795755719676 ], [ 143.710941080110558, -9.444691641485754 ], [ 143.706519273981684, -9.447541164374979 ], [ 143.702067733543743, -9.450344008977648 ], [ 143.697586951531463, -9.453099865050817 ], [ 143.693077423916378, -9.455808427552631 ], [ 143.688539649851776, -9.458469396676097 ], [ 143.683974131617504, -9.46108247788227 ], [ 143.6793813745644, -9.463647381932844 ], [ 143.67476188705831, -9.466163824922184 ], [ 143.670116180423861, -9.468631528308732 ], [ 143.665444768887795, -9.471050218945857 ], [ 143.660748169522094, -9.473419629112076 ], [ 143.656026902186824, -9.475739496540696 ], [ 143.651281489472439, -9.478009564448833 ], [ 143.643392489472461, -9.481732564448834 ], [ 143.638635346453157, -9.483947122503928 ], [ 143.633855224606265, -9.486111634507708 ], [ 143.629052650408255, -9.488225862063617 ], [ 143.624228152808428, -9.490289572313362 ], [ 143.619432212568626, -9.492281789156939 ], [ 143.614565829419803, -9.497197838491171 ] ], [ [ 143.203306, -8.441222 ], [ 143.2225, -8.462139 ], [ 143.245, -8.470444 ], [ 143.264167, -8.490417 ], [ 143.295806, -8.504583 ], [ 143.323333, -8.51125 ], [ 143.351722, -8.527083 ], [ 143.376222, -8.552528 ], [ 143.391222, -8.574194 ], [ 143.404972, -8.586278 ], [ 143.422528, -8.594611 ], [ 143.4675, -8.607111 ], [ 143.490833, -8.622111 ], [ 143.501639, -8.632944 ], [ 143.520833, -8.640444 ], [ 143.545833, -8.645444 ], [ 143.586639, -8.667944 ], [ 143.611278, -8.700833 ], [ 143.609972, -8.716278 ], [ 143.6175, -8.719611 ], [ 143.623361, -8.718778 ], [ 143.637056, -8.703361 ], [ 143.64625, -8.672528 ], [ 143.638722, -8.648389 ], [ 143.623361, -8.639583 ], [ 143.6075, -8.63625 ], [ 143.595861, -8.624583 ], [ 143.589972, -8.624611 ], [ 143.579944, -8.610444 ], [ 143.562472, -8.601278 ], [ 143.566278, -8.605833 ], [ 143.564222, -8.606306 ], [ 143.554167, -8.598806 ], [ 143.546278, -8.586694 ], [ 143.546639, -8.582889 ], [ 143.514972, -8.564639 ], [ 143.4725, -8.52375 ], [ 143.436639, -8.504583 ], [ 143.408361, -8.496278 ], [ 143.38, -8.481306 ], [ 143.351694, -8.474583 ], [ 143.309139, -8.471278 ], [ 143.275889, -8.463778 ], [ 143.252917, -8.448361 ], [ 143.239583, -8.424167 ], [ 143.229194, -8.413778 ], [ 143.211694, -8.406222 ], [ 143.198333, -8.407111 ], [ 143.184139, -8.41625 ], [ 143.180361, -8.423389 ], [ 143.180389, -8.425 ], [ 143.203306, -8.441222 ] ], [ [ 143.3175, -8.382944 ], [ 143.33, -8.387944 ], [ 143.370861, -8.415472 ], [ 143.405861, -8.428806 ], [ 143.434167, -8.43125 ], [ 143.474139, -8.418778 ], [ 143.505833, -8.437111 ], [ 143.524194, -8.442917 ], [ 143.533361, -8.442972 ], [ 143.545833, -8.437944 ], [ 143.554583, -8.426694 ], [ 143.567944, -8.404194 ], [ 143.569222, -8.394583 ], [ 143.570833, -8.402972 ], [ 143.585806, -8.407917 ], [ 143.600444, -8.421694 ], [ 143.610833, -8.436278 ], [ 143.6175, -8.438806 ], [ 143.620444, -8.435 ], [ 143.616278, -8.419194 ], [ 143.606222, -8.404167 ], [ 143.575806, -8.377972 ], [ 143.572944, -8.378333 ], [ 143.570361, -8.384194 ], [ 143.572028, -8.374194 ], [ 143.566278, -8.364194 ], [ 143.559972, -8.359639 ], [ 143.524194, -8.362972 ], [ 143.501639, -8.360417 ], [ 143.475, -8.362944 ], [ 143.42, -8.361278 ], [ 143.401667, -8.367056 ], [ 143.377472, -8.369639 ], [ 143.363306, -8.362944 ], [ 143.351694, -8.352111 ], [ 143.332556, -8.348778 ], [ 143.31875, -8.36 ], [ 143.310417, -8.373361 ], [ 143.310417, -8.375889 ], [ 143.3175, -8.382944 ] ], [ [ 142.6, -9.412111 ], [ 142.623278, -9.423778 ], [ 142.644111, -9.427111 ], [ 142.652472, -9.431278 ], [ 142.669972, -9.429583 ], [ 142.675028, -9.426278 ], [ 142.678306, -9.428806 ], [ 142.691639, -9.427111 ], [ 142.705833, -9.43125 ], [ 142.743306, -9.422111 ], [ 142.753333, -9.403806 ], [ 142.7775, -9.39375 ], [ 142.793361, -9.393778 ], [ 142.80125, -9.385 ], [ 142.801278, -9.377556 ], [ 142.794194, -9.372944 ], [ 142.740833, -9.368778 ], [ 142.734167, -9.372944 ], [ 142.7225, -9.374611 ], [ 142.707528, -9.38375 ], [ 142.701667, -9.383778 ], [ 142.687556, -9.377944 ], [ 142.672556, -9.37875 ], [ 142.658361, -9.367917 ], [ 142.646667, -9.36625 ], [ 142.626639, -9.374611 ], [ 142.615028, -9.382917 ], [ 142.605, -9.383778 ], [ 142.597972, -9.39 ], [ 142.599583, -9.398333 ], [ 142.59625, -9.404194 ], [ 142.596278, -9.407528 ], [ 142.6, -9.412111 ] ], [ [ 143.552889, -8.049194 ], [ 143.563722, -8.074194 ], [ 143.569972, -8.082083 ], [ 143.606694, -8.083806 ], [ 143.646639, -8.077111 ], [ 143.673333, -8.089611 ], [ 143.695, -8.104583 ], [ 143.707083, -8.100861 ], [ 143.706278, -8.088361 ], [ 143.699583, -8.074194 ], [ 143.685, -8.063778 ], [ 143.663333, -8.040444 ], [ 143.635806, -8.024556 ], [ 143.5875, -8.011278 ], [ 143.570806, -8.021306 ], [ 143.540778, -8.025444 ], [ 143.53625, -8.028361 ], [ 143.53625, -8.029167 ], [ 143.552889, -8.049194 ] ], [ [ 143.460806, -8.45375 ], [ 143.491667, -8.464583 ], [ 143.503333, -8.473806 ], [ 143.528361, -8.483806 ], [ 143.542056, -8.494222 ], [ 143.546667, -8.503778 ], [ 143.555806, -8.50875 ], [ 143.572472, -8.509611 ], [ 143.587889, -8.505 ], [ 143.589611, -8.499972 ], [ 143.586667, -8.492944 ], [ 143.5675, -8.497139 ], [ 143.562917, -8.492528 ], [ 143.564611, -8.486667 ], [ 143.576667, -8.488778 ], [ 143.583333, -8.48625 ], [ 143.595417, -8.475028 ], [ 143.608778, -8.451667 ], [ 143.590417, -8.415861 ], [ 143.578306, -8.407111 ], [ 143.570806, -8.407083 ], [ 143.565361, -8.411667 ], [ 143.557111, -8.431694 ], [ 143.551639, -8.437111 ], [ 143.531639, -8.445444 ], [ 143.5025, -8.437944 ], [ 143.475806, -8.421306 ], [ 143.445833, -8.428778 ], [ 143.43625, -8.434167 ], [ 143.436194, -8.435833 ], [ 143.460806, -8.45375 ] ], [ [ 143.539194, -8.350417 ], [ 143.558389, -8.352944 ], [ 143.570833, -8.357917 ], [ 143.597083, -8.380056 ], [ 143.625861, -8.412111 ], [ 143.630028, -8.410417 ], [ 143.629583, -8.414167 ], [ 143.638361, -8.42375 ], [ 143.654139, -8.432944 ], [ 143.675778, -8.429639 ], [ 143.686278, -8.419167 ], [ 143.685, -8.414583 ], [ 143.678778, -8.411694 ], [ 143.67625, -8.400889 ], [ 143.672917, -8.398389 ], [ 143.677056, -8.395028 ], [ 143.677056, -8.389167 ], [ 143.66625, -8.375 ], [ 143.667944, -8.364167 ], [ 143.645028, -8.34125 ], [ 143.6425, -8.342917 ], [ 143.6325, -8.335417 ], [ 143.6175, -8.331278 ], [ 143.589972, -8.332083 ], [ 143.573361, -8.327944 ], [ 143.5375, -8.332944 ], [ 143.525444, -8.339222 ], [ 143.525444, -8.341667 ], [ 143.539194, -8.350417 ] ], [ [ 143.5875, -8.13625 ], [ 143.605833, -8.147944 ], [ 143.626667, -8.168778 ], [ 143.641667, -8.177111 ], [ 143.675833, -8.16375 ], [ 143.684972, -8.162944 ], [ 143.694583, -8.151667 ], [ 143.692889, -8.130861 ], [ 143.643278, -8.09125 ], [ 143.6325, -8.090472 ], [ 143.615028, -8.09625 ], [ 143.579139, -8.100444 ], [ 143.577944, -8.119222 ], [ 143.577917, -8.121694 ], [ 143.5875, -8.13625 ] ], [ [ 143.865389, -7.743333 ], [ 143.878778, -7.757528 ], [ 143.89875, -7.7875 ], [ 143.9175, -7.807111 ], [ 143.939139, -7.820444 ], [ 143.96, -7.828806 ], [ 143.974139, -7.839583 ], [ 143.982472, -7.839583 ], [ 143.989139, -7.842917 ], [ 143.994556, -7.8375 ], [ 143.997889, -7.829222 ], [ 143.992056, -7.819222 ], [ 143.991278, -7.810833 ], [ 143.97625, -7.787556 ], [ 143.947472, -7.759639 ], [ 143.901639, -7.744639 ], [ 143.875861, -7.727944 ], [ 143.853722, -7.719194 ], [ 143.85375, -7.720861 ], [ 143.865389, -7.743333 ] ], [ [ 143.15, -8.351306 ], [ 143.189139, -8.36125 ], [ 143.2175, -8.362917 ], [ 143.236667, -8.359611 ], [ 143.259194, -8.362111 ], [ 143.283361, -8.350444 ], [ 143.29375, -8.335 ], [ 143.281639, -8.322944 ], [ 143.245861, -8.327111 ], [ 143.208306, -8.326306 ], [ 143.168333, -8.32875 ], [ 143.147528, -8.332944 ], [ 143.132944, -8.343361 ], [ 143.132944, -8.344167 ], [ 143.15, -8.351306 ] ], [ [ 144.184611, -7.789194 ], [ 144.190417, -7.801694 ], [ 144.188778, -7.806667 ], [ 144.204139, -7.812111 ], [ 144.228306, -7.810417 ], [ 144.240833, -7.803806 ], [ 144.2425, -7.807083 ], [ 144.248361, -7.805444 ], [ 144.264167, -7.793778 ], [ 144.272083, -7.784194 ], [ 144.267083, -7.77 ], [ 144.245, -7.75625 ], [ 144.218361, -7.755444 ], [ 144.19, -7.749583 ], [ 144.182917, -7.7675 ], [ 144.182944, -7.773361 ], [ 144.184611, -7.789194 ] ], [ [ 144.69875, -7.589972 ], [ 144.707889, -7.606667 ], [ 144.718778, -7.615861 ], [ 144.71875, -7.619194 ], [ 144.729194, -7.627111 ], [ 144.7425, -7.633778 ], [ 144.755389, -7.63 ], [ 144.762917, -7.615 ], [ 144.764611, -7.604222 ], [ 144.752917, -7.5975 ], [ 144.763306, -7.601278 ], [ 144.765417, -7.591722 ], [ 144.743333, -7.557111 ], [ 144.734167, -7.554583 ], [ 144.716639, -7.539556 ], [ 144.705056, -7.53875 ], [ 144.707889, -7.559167 ], [ 144.692944, -7.585028 ], [ 144.692944, -7.585833 ], [ 144.69875, -7.589972 ] ], [ [ 143.608333, -8.528778 ], [ 143.61125, -8.528361 ], [ 143.613333, -8.535444 ], [ 143.642528, -8.540417 ], [ 143.673306, -8.521278 ], [ 143.677861, -8.515056 ], [ 143.678778, -8.506722 ], [ 143.672083, -8.492528 ], [ 143.6625, -8.48125 ], [ 143.657472, -8.482944 ], [ 143.645, -8.472056 ], [ 143.630833, -8.470444 ], [ 143.621639, -8.472917 ], [ 143.608722, -8.481722 ], [ 143.602944, -8.4925 ], [ 143.599583, -8.510889 ], [ 143.599556, -8.516722 ], [ 143.608333, -8.528778 ] ], [ [ 143.306694, -8.327972 ], [ 143.311639, -8.328806 ], [ 143.339194, -8.319583 ], [ 143.3675, -8.319583 ], [ 143.399167, -8.327944 ], [ 143.455806, -8.335472 ], [ 143.489139, -8.332083 ], [ 143.497028, -8.324194 ], [ 143.497917, -8.316667 ], [ 143.4925, -8.310444 ], [ 143.484167, -8.308778 ], [ 143.379139, -8.304583 ], [ 143.332556, -8.312917 ], [ 143.319194, -8.312111 ], [ 143.301306, -8.319222 ], [ 143.30125, -8.320833 ], [ 143.306694, -8.327972 ] ], [ [ 143.729583, -8.475833 ], [ 143.730778, -8.482944 ], [ 143.750861, -8.495444 ], [ 143.7575, -8.495444 ], [ 143.759583, -8.503361 ], [ 143.765861, -8.510417 ], [ 143.780861, -8.502972 ], [ 143.790444, -8.489194 ], [ 143.791222, -8.481667 ], [ 143.786278, -8.464194 ], [ 143.775806, -8.452917 ], [ 143.748361, -8.437111 ], [ 143.746667, -8.439639 ], [ 143.725833, -8.434611 ], [ 143.715417, -8.46 ], [ 143.715417, -8.466694 ], [ 143.729583, -8.475833 ] ], [ [ 143.374639, -9.015806 ], [ 143.376194, -9.024167 ], [ 143.403361, -9.040417 ], [ 143.406222, -9.03 ], [ 143.410444, -9.029167 ], [ 143.407083, -9.025861 ], [ 143.413306, -9.025417 ], [ 143.415861, -9.020417 ], [ 143.421667, -9.02375 ], [ 143.424167, -9.022139 ], [ 143.42375, -9.025 ], [ 143.43, -9.029556 ], [ 143.437889, -9.025833 ], [ 143.442083, -9.008361 ], [ 143.447056, -9.000861 ], [ 143.450444, -8.982528 ], [ 143.444222, -8.972944 ], [ 143.434167, -8.967944 ], [ 143.425833, -8.973806 ], [ 143.418333, -8.973778 ], [ 143.4075, -8.984583 ], [ 143.390028, -8.992917 ], [ 143.384528, -9.0 ], [ 143.384556, -9.000889 ], [ 143.374639, -9.015806 ] ], [ [ 143.202528, -9.137917 ], [ 143.218333, -9.144611 ], [ 143.227472, -9.142083 ], [ 143.232472, -9.147889 ], [ 143.248333, -9.149639 ], [ 143.259222, -9.145444 ], [ 143.264611, -9.14 ], [ 143.267917, -9.129194 ], [ 143.27125, -9.126667 ], [ 143.275417, -9.107528 ], [ 143.272083, -9.100028 ], [ 143.267528, -9.097056 ], [ 143.246639, -9.095417 ], [ 143.211667, -9.117083 ], [ 143.203361, -9.119611 ], [ 143.197056, -9.125861 ], [ 143.197083, -9.131694 ], [ 143.202528, -9.137917 ] ], [ [ 143.015806, -8.412111 ], [ 143.060778, -8.407111 ], [ 143.077472, -8.400417 ], [ 143.082083, -8.387528 ], [ 143.072472, -8.382139 ], [ 143.0075, -8.388778 ], [ 142.969194, -8.385417 ], [ 142.969611, -8.398333 ], [ 142.994167, -8.41125 ], [ 143.0, -8.411278 ], [ 143.015806, -8.412111 ] ], [ [ 144.290472, -7.686667 ], [ 144.292944, -7.686667 ], [ 144.299556, -7.719194 ], [ 144.310889, -7.724611 ], [ 144.315833, -7.719583 ], [ 144.321694, -7.722944 ], [ 144.337083, -7.716667 ], [ 144.337917, -7.7125 ], [ 144.332917, -7.700806 ], [ 144.317083, -7.684194 ], [ 144.308722, -7.668361 ], [ 144.305, -7.648778 ], [ 144.290833, -7.652111 ], [ 144.28125, -7.667556 ], [ 144.281222, -7.669167 ], [ 144.290472, -7.686667 ] ], [ [ 143.804167, -8.546278 ], [ 143.814167, -8.544611 ], [ 143.825444, -8.533389 ], [ 143.831306, -8.518389 ], [ 143.826222, -8.499194 ], [ 143.823333, -8.497083 ], [ 143.817861, -8.5 ], [ 143.818333, -8.490417 ], [ 143.815028, -8.495444 ], [ 143.810889, -8.494611 ], [ 143.802944, -8.5 ], [ 143.804583, -8.503361 ], [ 143.800056, -8.508806 ], [ 143.799556, -8.500028 ], [ 143.795833, -8.497111 ], [ 143.783361, -8.513806 ], [ 143.782111, -8.511667 ], [ 143.786278, -8.504194 ], [ 143.783361, -8.502944 ], [ 143.777917, -8.510861 ], [ 143.779611, -8.520028 ], [ 143.774583, -8.516722 ], [ 143.774556, -8.518333 ], [ 143.804167, -8.546278 ] ], [ [ 143.42875, -8.725861 ], [ 143.436222, -8.744194 ], [ 143.439611, -8.778361 ], [ 143.442528, -8.783806 ], [ 143.4475, -8.78375 ], [ 143.457056, -8.774167 ], [ 143.460444, -8.760833 ], [ 143.46125, -8.747528 ], [ 143.457056, -8.719194 ], [ 143.450417, -8.706667 ], [ 143.446722, -8.704583 ], [ 143.438361, -8.702111 ], [ 143.424583, -8.703333 ], [ 143.424611, -8.705861 ], [ 143.42875, -8.725861 ] ], [ [ 143.281278, -8.550806 ], [ 143.301694, -8.580417 ], [ 143.31, -8.585417 ], [ 143.32, -8.586278 ], [ 143.332056, -8.579194 ], [ 143.323306, -8.552111 ], [ 143.289167, -8.537972 ], [ 143.2625, -8.52125 ], [ 143.25375, -8.519167 ], [ 143.25375, -8.519972 ], [ 143.281278, -8.550806 ] ], [ [ 143.252111, -8.430056 ], [ 143.264139, -8.440417 ], [ 143.281667, -8.446306 ], [ 143.300389, -8.441722 ], [ 143.28375, -8.417528 ], [ 143.2725, -8.407083 ], [ 143.254972, -8.400417 ], [ 143.244167, -8.400417 ], [ 143.240389, -8.403306 ], [ 143.240389, -8.406694 ], [ 143.252111, -8.430056 ] ], [ [ 143.870778, -7.850417 ], [ 143.874944, -7.853778 ], [ 143.885806, -7.851278 ], [ 143.887083, -7.841694 ], [ 143.878722, -7.825861 ], [ 143.87875, -7.819194 ], [ 143.867944, -7.795861 ], [ 143.856694, -7.78125 ], [ 143.850444, -7.7825 ], [ 143.842917, -7.797528 ], [ 143.842944, -7.8 ], [ 143.870778, -7.850417 ] ], [ [ 143.144611, -8.470028 ], [ 143.154972, -8.480417 ], [ 143.1625, -8.484639 ], [ 143.169167, -8.482917 ], [ 143.213389, -8.514583 ], [ 143.224139, -8.526306 ], [ 143.247917, -8.539194 ], [ 143.234167, -8.523778 ], [ 143.202083, -8.496694 ], [ 143.179194, -8.467944 ], [ 143.163306, -8.464639 ], [ 143.148306, -8.452917 ], [ 143.140056, -8.451222 ], [ 143.137917, -8.454167 ], [ 143.137944, -8.458361 ], [ 143.144611, -8.470028 ] ], [ [ 143.18375, -9.095 ], [ 143.192528, -9.102972 ], [ 143.209167, -9.105444 ], [ 143.215861, -9.096278 ], [ 143.237111, -9.084167 ], [ 143.231694, -9.077083 ], [ 143.214972, -9.072944 ], [ 143.21, -9.06625 ], [ 143.207528, -9.069583 ], [ 143.195, -9.071278 ], [ 143.194167, -9.074611 ], [ 143.19, -9.074583 ], [ 143.182056, -9.082556 ], [ 143.182056, -9.09 ], [ 143.18375, -9.095 ] ], [ [ 143.059167, -8.350417 ], [ 143.065, -8.350444 ], [ 143.110833, -8.342083 ], [ 143.1225, -8.337944 ], [ 143.142083, -8.322528 ], [ 143.135806, -8.317111 ], [ 143.124139, -8.317972 ], [ 143.052111, -8.344194 ], [ 143.052056, -8.345056 ], [ 143.059167, -8.350417 ] ], [ [ 143.355444, -8.657528 ], [ 143.359944, -8.662083 ], [ 143.403361, -8.680417 ], [ 143.423306, -8.694556 ], [ 143.427056, -8.692528 ], [ 143.412083, -8.668361 ], [ 143.398333, -8.656278 ], [ 143.354556, -8.648333 ], [ 143.354583, -8.65 ], [ 143.355444, -8.657528 ] ], [ [ 144.66375, -7.510889 ], [ 144.675056, -7.522139 ], [ 144.695833, -7.532917 ], [ 144.699583, -7.531667 ], [ 144.695444, -7.508361 ], [ 144.698722, -7.497528 ], [ 144.689139, -7.482944 ], [ 144.686222, -7.483333 ], [ 144.679139, -7.496278 ], [ 144.660472, -7.499222 ], [ 144.660444, -7.502472 ], [ 144.66375, -7.510889 ] ], [ [ 144.665472, -7.540861 ], [ 144.664556, -7.562528 ], [ 144.679167, -7.56875 ], [ 144.690833, -7.567111 ], [ 144.698778, -7.553306 ], [ 144.695417, -7.543361 ], [ 144.689139, -7.537083 ], [ 144.674139, -7.529583 ], [ 144.661278, -7.534167 ], [ 144.661278, -7.535028 ], [ 144.665472, -7.540861 ] ], [ [ 144.361278, -7.761694 ], [ 144.374139, -7.769583 ], [ 144.403333, -7.778778 ], [ 144.412472, -7.778778 ], [ 144.417944, -7.775833 ], [ 144.4125, -7.769583 ], [ 144.391667, -7.762111 ], [ 144.3825, -7.755472 ], [ 144.370389, -7.742528 ], [ 144.361333, -7.725833 ], [ 144.358806, -7.725889 ], [ 144.358806, -7.744194 ], [ 144.361278, -7.761694 ] ], [ [ 143.747889, -7.583333 ], [ 143.764167, -7.603778 ], [ 143.770806, -7.605444 ], [ 143.774583, -7.594194 ], [ 143.760444, -7.556694 ], [ 143.755806, -7.551278 ], [ 143.752444, -7.551306 ], [ 143.742056, -7.561694 ], [ 143.742083, -7.565028 ], [ 143.747889, -7.583333 ] ], [ [ 143.36125, -8.690028 ], [ 143.381667, -8.707111 ], [ 143.396667, -8.71125 ], [ 143.407083, -8.705 ], [ 143.403361, -8.697972 ], [ 143.368333, -8.683778 ], [ 143.349139, -8.667944 ], [ 143.346278, -8.669167 ], [ 143.34625, -8.671694 ], [ 143.36125, -8.690028 ] ], [ [ 142.674167, -9.377139 ], [ 142.690028, -9.37625 ], [ 142.703333, -9.380444 ], [ 142.725472, -9.370861 ], [ 142.713306, -9.364611 ], [ 142.704167, -9.365472 ], [ 142.687528, -9.360417 ], [ 142.666222, -9.371667 ], [ 142.66625, -9.373389 ], [ 142.674167, -9.377139 ] ], [ [ 143.369139, -8.354639 ], [ 143.390833, -8.356278 ], [ 143.402139, -8.353361 ], [ 143.395, -8.33875 ], [ 143.357083, -8.340028 ], [ 143.357083, -8.340833 ], [ 143.369139, -8.354639 ] ], [ [ 143.1875, -8.315444 ], [ 143.219139, -8.31625 ], [ 143.235833, -8.312944 ], [ 143.243722, -8.3075 ], [ 143.216639, -8.302139 ], [ 143.182056, -8.310028 ], [ 143.182056, -8.311694 ], [ 143.1875, -8.315444 ] ], [ [ 143.340028, -8.609639 ], [ 143.344167, -8.610472 ], [ 143.349583, -8.606694 ], [ 143.350444, -8.600833 ], [ 143.339167, -8.582083 ], [ 143.333333, -8.581278 ], [ 143.321222, -8.589194 ], [ 143.321222, -8.59 ], [ 143.340028, -8.609639 ] ], [ [ 142.910833, -8.351278 ], [ 142.925028, -8.352111 ], [ 142.934611, -8.347528 ], [ 142.919167, -8.337111 ], [ 142.893778, -8.339167 ], [ 142.893778, -8.341639 ], [ 142.910833, -8.351278 ] ], [ [ 143.403722, -8.346694 ], [ 143.404972, -8.354583 ], [ 143.430444, -8.352556 ], [ 143.429583, -8.346694 ], [ 143.421667, -8.340444 ], [ 143.397917, -8.338333 ], [ 143.397917, -8.339194 ], [ 143.403722, -8.346694 ] ], [ [ 142.898722, -8.316639 ], [ 142.9, -8.32375 ], [ 142.921694, -8.327917 ], [ 142.928778, -8.326667 ], [ 142.924139, -8.320444 ], [ 142.892083, -8.306694 ], [ 142.892083, -8.3075 ], [ 142.898722, -8.316639 ] ], [ [ 143.107472, -8.393778 ], [ 143.115, -8.39625 ], [ 143.126222, -8.385 ], [ 143.12625, -8.381667 ], [ 143.1075, -8.378722 ], [ 143.10125, -8.383361 ], [ 143.10125, -8.385833 ], [ 143.107472, -8.393778 ] ], [ [ 142.25, -8.172083 ], [ 142.264167, -8.171306 ], [ 142.271667, -8.16875 ], [ 142.272139, -8.164222 ], [ 142.265056, -8.160444 ], [ 142.250861, -8.16125 ], [ 142.243778, -8.168333 ], [ 142.243778, -8.169194 ], [ 142.25, -8.172083 ] ], [ [ 143.30625, -8.365 ], [ 143.310417, -8.346722 ], [ 143.304139, -8.345444 ], [ 143.298333, -8.349611 ], [ 143.294611, -8.359222 ], [ 143.294611, -8.360806 ], [ 143.30625, -8.365 ] ], [ [ 143.300056, -8.429611 ], [ 143.312111, -8.430056 ], [ 143.302528, -8.416278 ], [ 143.290472, -8.415889 ], [ 143.290472, -8.419222 ], [ 143.300056, -8.429611 ] ], [ [ 142.451694, -8.340417 ], [ 142.472889, -8.338389 ], [ 142.471639, -8.335444 ], [ 142.4625, -8.332111 ], [ 142.437889, -8.330806 ], [ 142.437889, -8.331667 ], [ 142.451694, -8.340417 ] ], [ [ 143.298361, -8.457917 ], [ 143.313722, -8.454194 ], [ 143.312472, -8.451278 ], [ 143.304167, -8.44875 ], [ 143.286694, -8.45125 ], [ 143.285389, -8.452528 ], [ 143.298361, -8.457917 ] ], [ [ 143.230806, -8.501278 ], [ 143.245417, -8.505 ], [ 143.2425, -8.498806 ], [ 143.223306, -8.487083 ], [ 143.220417, -8.488389 ], [ 143.220361, -8.490833 ], [ 143.230806, -8.501278 ] ], [ [ 143.706306, -8.4475 ], [ 143.706278, -8.441694 ], [ 143.701667, -8.435472 ], [ 143.694972, -8.436278 ], [ 143.687083, -8.442528 ], [ 143.687083, -8.443389 ], [ 143.706306, -8.4475 ] ], [ [ 143.035833, -8.360444 ], [ 143.044194, -8.361278 ], [ 143.051278, -8.355833 ], [ 143.046667, -8.352139 ], [ 143.039194, -8.351306 ], [ 143.033722, -8.355 ], [ 143.03375, -8.357528 ], [ 143.035833, -8.360444 ] ], [ [ 143.347528, -8.335417 ], [ 143.351222, -8.334194 ], [ 143.349194, -8.329611 ], [ 143.340028, -8.32375 ], [ 143.33375, -8.328333 ], [ 143.33375, -8.330056 ], [ 143.347528, -8.335417 ] ], [ [ 143.291222, -8.530833 ], [ 143.289222, -8.52625 ], [ 143.264556, -8.515833 ], [ 143.264583, -8.516639 ], [ 143.291222, -8.530833 ] ], [ [ 143.107472, -8.417944 ], [ 143.110833, -8.417917 ], [ 143.11875, -8.410889 ], [ 143.113306, -8.408778 ], [ 143.104556, -8.411694 ], [ 143.104583, -8.413361 ], [ 143.107472, -8.417944 ] ], [ [ 142.216694, -8.19125 ], [ 142.2225, -8.184583 ], [ 142.233806, -8.178361 ], [ 142.229194, -8.177111 ], [ 142.216667, -8.18375 ], [ 142.21375, -8.188333 ], [ 142.21375, -8.19 ], [ 142.216694, -8.19125 ] ], [ [ 144.128333, -7.648778 ], [ 144.13125, -7.6425 ], [ 144.13, -7.630444 ], [ 144.125389, -7.640833 ], [ 144.125417, -7.645889 ], [ 144.128333, -7.648778 ] ], [ [ 142.923333, -8.402056 ], [ 142.932944, -8.400861 ], [ 142.930889, -8.397944 ], [ 142.91625, -8.393389 ], [ 142.916194, -8.395056 ], [ 142.923333, -8.402056 ] ], [ [ 143.437472, -8.352917 ], [ 143.44125, -8.35 ], [ 143.439944, -8.345417 ], [ 143.430444, -8.344167 ], [ 143.430417, -8.345833 ], [ 143.437472, -8.352917 ] ], [ [ 143.302528, -9.619556 ], [ 143.311278, -9.611694 ], [ 143.303333, -9.611278 ], [ 143.296306, -9.617528 ], [ 143.296306, -9.618333 ], [ 143.302528, -9.619556 ] ], [ [ 143.775, -7.615417 ], [ 143.778722, -7.614194 ], [ 143.775806, -7.604556 ], [ 143.772028, -7.607528 ], [ 143.772056, -7.611694 ], [ 143.775, -7.615417 ] ], [ [ 143.180778, -8.41375 ], [ 143.187083, -8.409194 ], [ 143.179194, -8.405444 ], [ 143.177056, -8.407528 ], [ 143.177028, -8.4125 ], [ 143.180778, -8.41375 ] ], [ [ 143.545833, -8.066278 ], [ 143.545417, -8.055889 ], [ 143.54125, -8.052528 ], [ 143.541222, -8.059194 ], [ 143.545833, -8.066278 ] ], [ [ 143.545806, -9.512972 ], [ 143.549556, -9.509194 ], [ 143.544167, -9.50625 ], [ 143.541222, -9.51 ], [ 143.541222, -9.510806 ], [ 143.545806, -9.512972 ] ], [ [ 142.665, -9.369611 ], [ 142.669611, -9.366722 ], [ 142.668333, -9.362917 ], [ 142.6625, -9.36375 ], [ 142.661278, -9.365028 ], [ 142.665, -9.369611 ] ], [ [ 143.498778, -9.561667 ], [ 143.487056, -9.571694 ], [ 143.486278, -9.5725 ], [ 143.498778, -9.561667 ] ], [ [ 143.135, -8.409583 ], [ 143.137944, -8.404167 ], [ 143.129583, -8.405028 ], [ 143.129583, -8.405833 ], [ 143.135, -8.409583 ] ], [ [ 143.379139, -8.295417 ], [ 143.382917, -8.294194 ], [ 143.381694, -8.29125 ], [ 143.372917, -8.291667 ], [ 143.372917, -8.292528 ], [ 143.379139, -8.295417 ] ], [ [ 142.7225, -9.31375 ], [ 142.725444, -9.310861 ], [ 142.717917, -9.311722 ], [ 142.717917, -9.312528 ], [ 142.7225, -9.31375 ] ], [ [ 142.774583, -9.285889 ], [ 142.77375, -9.280833 ], [ 142.770417, -9.280861 ], [ 142.770444, -9.284194 ], [ 142.774583, -9.285889 ] ], [ [ 143.070472, -8.333361 ], [ 143.0675, -8.332111 ], [ 143.064583, -8.335056 ], [ 143.064611, -8.335861 ], [ 143.070472, -8.333361 ] ], [ [ 142.444167, -8.339583 ], [ 142.447083, -8.338361 ], [ 142.44125, -8.335056 ], [ 142.44125, -8.336667 ], [ 142.444167, -8.339583 ] ], [ [ 142.465417, -8.342556 ], [ 142.456667, -8.34125 ], [ 142.456278, -8.341722 ], [ 142.465417, -8.342556 ] ], [ [ 143.25125, -8.508333 ], [ 143.246222, -8.504194 ], [ 143.246222, -8.505861 ], [ 143.25125, -8.508333 ] ], [ [ 143.877111, -9.145028 ], [ 143.872917, -9.143333 ], [ 143.872917, -9.144194 ], [ 143.877111, -9.145028 ] ], [ [ 142.524583, -8.36 ], [ 142.521278, -8.360833 ], [ 142.521278, -8.361694 ], [ 142.524583, -8.36 ] ], [ [ 142.632972, -9.369972 ], [ 142.629972, -9.368806 ], [ 142.628778, -9.37 ], [ 142.632972, -9.369972 ] ], [ [ 142.205417, -8.203361 ], [ 142.202917, -8.203361 ], [ 142.202917, -8.204167 ], [ 142.205417, -8.203361 ] ] ] } }
]
}
